OBJECT_NAME,OBJECT_ID,EPOCH,MEAN_MOTION,ECCENTRICITY,INCLINATION,RA_OF_ASC_NODE,ARG_OF_PERICENTER,MEAN_ANOMALY,EPHEMERIS_TYPE,CLASSIFICATION_TYPE,NORAD_CAT_ID,ELEMENT_SET_NO,REV_AT_EPOCH,BSTAR,MEAN_MOTION_DOT,MEAN_MOTION_DDOT
SL-14 DEB,1987-068CV,2024-02-12T22:58:25.459104,14.27823730,.0015266,82.5026,273.2879,302.4208,57.5499,0,U,39969,999,7602,.2897E-2,.7187E-4,0
SL-14 DEB,1987-068CW,2024-02-12T06:42:31.717728,14.13456855,.0017271,82.5324,42.7910,14.9987,345.1698,0,U,39970,999,816,.30747E-2,.5805E-4,0
SL-14 DEB,1987-068CX,2024-01-25T08:24:24.154848,13.86746591,.0065161,82.4578,242.8903,11.0003,109.6762,0,U,39971,999,48861,.14905E-2,.178E-4,0
SL-14 DEB,1987-068CY,2024-01-22T19:25:37.361280,13.89125416,.0018711,82.4946,189.3815,18.7832,341.4017,0,U,39972,999,5493,.71786E-3,.887E-5,0
SL-14 DEB,1987-068CZ,2024-02-07T08:22:28.733088,14.40134802,.0026336,83.0306,263.8038,10.5481,349.6258,0,U,39973,999,50593,.17644E-2,.5611E-4,0
SL-14 DEB,1987-068DB,2024-02-12T13:08:38.398560,14.02165676,.0100922,82.5988,136.9474,58.3850,302.7120,0,U,39975,999,49550,.76382E-3,.1237E-4,0
SL-14 DEB,1987-068DE,2024-02-09T09:00:49.870944,13.94035016,.0044274,82.4086,75.3004,314.0143,45.7376,0,U,39978,999,49158,.13933E-2,.1872E-4,0
SL-14 DEB,1987-068DF,2024-02-05T07:48:38.669184,14.33614009,.0027755,82.5249,248.2551,168.9546,191.2257,0,U,39979,999,50249,.26546E-2,.7403E-4,0
SL-14 DEB,1987-068DH,2024-01-21T20:18:07.155360,13.92797273,.000736,82.5559,218.2824,182.5023,238.2051,0,U,39981,999,48979,.80474E-3,.1056E-4,0
SL-14 DEB,1987-068DJ,2024-02-12T04:38:26.153664,13.89036554,.0017711,82.5467,206.3706,146.1783,336.6114,0,U,39982,999,49095,.42899E-3,.535E-5,0
SL-14 DEB,1987-068DK,2024-02-10T17:34:04.592640,14.24385760,.0050273,82.1472,315.1782,208.0845,181.5892,0,U,39983,999,50020,.54813E-2,.1287E-3,0
SL-14 DEB,1987-068DL,2024-01-15T11:05:58.899264,14.23341468,.0012417,82.8349,282.7884,309.8157,50.1932,0,U,39984,999,49688,.33348E-2,.7582E-4,0
SL-14 DEB,1987-068DN,2024-02-06T20:34:17.256288,13.86938487,.00391,82.4961,241.3197,206.1460,215.5073,0,U,39986,999,80328,.11867E-2,.1409E-4,0
BREEZE-M DEB,2008-011DM,2024-02-12T19:53:05.812800,2.86716104,.5646449,49.1090,192.7222,151.1928,257.5004,0,U,39988,999,10139,0,-.14E-6,0
BREEZE-M DEB,2008-011DN,2024-02-12T19:58:29.598528,3.55889851,.6105379,48.4000,204.1335,93.6642,333.4826,0,U,39989,999,390,.17184E+0,.15851E-3,0
BREEZE-M DEB,2008-011DS,2024-02-12T00:11:20.511456,3.17697570,.622618,51.3668,340.8132,121.0401,314.4176,0,U,39993,999,11261,.77819E-2,.37E-6,0
MSG 1 DEB [COOLER COVER],2002-040E,2024-02-12T04:04:51.765312,1.01176405,.0006361,11.6748,20.5303,245.1784,265.1436,0,U,39998,999,917,0,-.11E-5,0
MSG 1 DEB [BAFFLE COVER],2002-040F,2024-02-12T07:49:53.011200,1.01969723,.0093383,11.4683,19.7895,92.1652,51.5894,0,U,39999,999,3336,0,-.236E-5,0
FENGYUN 2C DEB,2004-042D,2024-02-12T12:28:43.780224,1.00326013,.0038899,11.8386,25.4679,79.8089,280.6882,0,U,40000,999,5482,0,.38E-6,0
COSMOS 2500 [GLONASS-M],2014-032A,2024-02-12T14:08:26.094624,2.13105938,.0005489,65.6571,342.6677,223.6142,136.3528,0,U,40001,999,7522,0,-.65E-6,0
FREGAT R/B,2014-032B,2024-02-12T03:28:23.688768,2.09160426,.0080665,65.8029,347.6114,90.4090,270.5171,0,U,40002,999,7382,0,-.66E-6,0
KAZEOSAT 2,2014-033A,2024-02-13T02:34:37.751232,14.82267534,.0010688,97.6399,274.9646,257.4338,102.5681,0,U,40010,999,52214,.1537E-3,.1178E-4,0
HODOYOSHI-4,2014-033B,2024-02-13T03:40:44.257728,14.83640568,.0024136,97.5963,259.9619,250.7452,109.1151,0,U,40011,999,52182,.32769E-3,.2667E-4,0
UNISAT-6,2014-033C,2024-02-12T22:21:45.579456,14.78583993,.0053911,97.6874,211.6842,354.7466,5.3173,0,U,40012,999,51932,.63796E-3,.4732E-4,0
DEIMOS-2,2014-033D,2024-02-13T03:27:28.337472,14.87992334,.0000828,97.6979,294.5356,53.6638,306.4655,0,U,40013,999,52316,.3272E-3,.295E-4,0
BUGSAT-1 (TITA),2014-033E,2024-02-13T02:47:32.173440,15.02176768,.0036541,98.1408,79.4645,191.8334,168.2035,0,U,40014,999,52686,.57048E-3,.7554E-4,0
HODOYOSHI-3,2014-033F,2024-02-12T13:11:28.071744,14.80518175,.0034482,97.5961,235.9371,287.5564,72.1883,0,U,40015,999,52078,.45187E-3,.3445E-4,0
SAUDISAT 4,2014-033G,2024-02-12T22:17:55.226688,14.76762225,.0046663,97.6521,216.0498,337.3209,22.5939,0,U,40016,999,51971,.20298E-3,.1398E-4,0
TABLETSAT-AURORA,2014-033H,2024-02-13T02:13:50.536992,15.01143685,.0015827,98.1318,61.2639,212.6101,147.4145,0,U,40017,999,52620,.59549E-3,.7588E-4,0
APRIZESAT 9,2014-033J,2024-02-12T22:53:31.477920,14.71535628,.0070683,97.7811,194.8544,69.6045,291.2737,0,U,40018,999,51778,.2251E-3,.1404E-4,0
APRIZESAT 10,2014-033K,2024-02-13T02:53:26.430720,14.68489698,.0083139,97.8453,186.3829,123.3300,237.5901,0,U,40019,999,51682,.27344E-3,.162E-4,0
BRITE-CA1 (TORONTO),2014-033L,2024-02-12T23:23:23.853696,14.68875815,.0084789,97.8550,185.7127,131.3345,229.5196,0,U,40020,999,51659,.45817E-3,.2779E-4,0
DUCHIFAT-1,2014-033M,2024-02-12T21:58:58.380672,15.03224332,.0014655,98.0819,21.8151,152.6677,207.5321,0,U,40021,999,52528,.11137E-2,.15065E-3,0
PACE,2014-033N,2024-02-12T20:02:22.047360,14.95517173,.0010136,98.0282,359.1542,216.5249,143.5281,0,U,40022,999,52448,.81057E-3,.8935E-4,0
FLOCK 1C-10,2014-033P,2024-02-13T03:52:59.710080,15.03370660,.0011278,98.0634,16.3505,174.2682,185.8674,0,U,40023,999,52504,.154E-2,.20937E-3,0
NANOSATC-BR1,2014-033Q,2024-02-13T03:24:31.893120,15.00251061,.0009208,98.0626,11.4656,206.1255,153.9504,0,U,40024,999,52500,.92787E-3,.11573E-3,0
QB50P1,2014-033R,2024-02-12T19:34:04.788480,14.97287713,.0009765,98.0276,0.8143,204.9881,155.0868,0,U,40025,999,52410,.97854E-3,.11305E-3,0
FLOCK 1C-7,2014-033S,2024-02-12T21:21:18.196416,15.11142725,.0007545,98.0698,25.3081,137.0055,223.1764,0,U,40026,999,52490,.17613E-2,.2958E-3,0
FLOCK 1C-1,2014-033T,2024-02-12T11:48:55.017216,15.08920719,.0009255,98.0892,20.2284,181.5779,178.5420,0,U,40027,999,52460,.1979E-2,.31294E-3,0
POPSAT-HIP-1,2014-033U,2024-02-13T02:22:07.179744,14.96612955,.0010584,98.0404,2.7546,207.3485,152.7179,0,U,40028,999,52457,.84729E-3,.961E-4,0
FLOCK 1C-2,2014-033V,2024-02-12T21:17:02.004000,15.09535297,.0007991,98.0840,19.5645,172.4787,187.6561,0,U,40029,999,52516,.193E-2,.31026E-3,0
DTUSAT-2,2014-033W,2024-02-12T20:18:02.318688,14.96186422,.0009296,97.9944,353.3109,205.7519,154.3240,0,U,40030,999,52394,.89438E-3,.10036E-3,0
FLOCK 1C-4,2014-033X,2024-02-12T21:52:26.769216,15.02701042,.0007675,98.0680,14.7530,159.6540,200.4991,0,U,40031,999,52437,.14069E-2,.18766E-3,0
QB50P2,2014-033Y,2024-02-12T19:38:34.670976,14.96236186,.0008897,97.9952,353.2976,203.1403,156.9418,0,U,40032,999,52391,.91996E-3,.10338E-3,0
FLOCK 1C-11,2014-033Z,2024-02-12T22:01:43.751136,15.09803130,.0012178,98.1153,30.1017,159.2658,200.9066,0,U,40033,999,52496,.17274E-2,.27981E-3,0
ANTELSAT,2014-033AA,2024-02-12T22:16:41.212992,14.79355466,.0053609,97.6839,213.1711,351.1814,8.8451,0,U,40034,999,51882,.69562E-3,.5259E-4,0
FLOCK 1C-9,2014-033AB,2024-02-12T21:29:08.904480,15.09430104,.0008785,98.0744,21.7215,135.5942,224.5991,0,U,40035,999,52470,.20523E-2,.32916E-3,0
FLOCK 1C-6,2014-033AC,2024-02-12T21:45:26.569728,15.09980491,.0003659,98.0745,23.7208,173.9518,186.1755,0,U,40036,999,52475,.15756E-2,.25594E-3,0
PERSEUS-M2,2014-033AD,2024-02-12T18:52:13.756512,14.89652197,.0012027,97.9214,334.2726,246.5025,113.4928,0,U,40037,999,52315,.37958E-3,.3577E-4,0
FLOCK 1C-5,2014-033AE,2024-02-12T21:52:50.797056,15.08468527,.0013065,98.0810,21.7876,147.4801,212.7233,0,U,40038,999,52470,.16518E-2,.25793E-3,0
PERSEUS-M1,2014-033AF,2024-02-12T18:58:25.727520,14.89379319,.0011834,97.9036,330.6806,245.7842,114.2139,0,U,40039,999,52301,.44407E-3,.4166E-4,0
FLOCK 1C-8,2014-033AG,2024-02-12T22:11:19.238208,15.16713425,.0012086,98.1058,41.9977,137.5377,222.6792,0,U,40040,999,52547,.18779E-2,.36957E-3,0
FLOCK 1C-3,2014-033AH,2024-02-12T21:49:28.354080,15.10469791,.0011216,98.0761,20.7437,178.5796,181.5466,0,U,40041,999,52468,.16983E-2,.28011E-3,0
POLYITAN-1,2014-033AJ,2024-02-13T03:24:57.372480,14.99142856,.0012098,98.0376,3.8920,199.4658,160.6104,0,U,40042,999,52459,.99557E-3,.12076E-3,0
TIGRISAT,2014-033AK,2024-02-12T10:55:31.933344,14.77911749,.0056295,97.6793,211.8112,354.1594,5.8954,0,U,40043,999,51888,.53333E-3,.3892E-4,0
LEMUR-1,2014-033AL,2024-02-13T00:56:08.533824,14.77809134,.0055515,97.6831,211.7222,355.4846,4.5857,0,U,40044,999,51921,.47709E-3,.3465E-4,0
AEROCUBE 6A,2014-033AM,2024-02-12T10:44:30.416928,14.81439465,.0052011,97.6604,222.1371,335.0403,24.8296,0,U,40045,999,51916,.10718E-2,.8543E-4,0
AEROCUBE 6B,2014-033AN,2024-02-12T11:42:39.509856,14.82266771,.0050557,97.6562,220.7802,330.8931,28.9466,0,U,40046,999,51921,.10354E-2,.8407E-4,0
SL-24 R/B,2014-033AP,2024-02-12T21:55:03.666432,13.61609594,.0570005,97.8544,50.6291,71.3474,294.8666,0,U,40047,999,47962,.85555E-4,.166E-5,0
SL-24 PLAT,2014-033AR,2024-02-12T19:51:33.699168,14.94614953,.000977,98.0228,356.4281,219.6075,140.4431,0,U,40049,999,52373,.87107E-3,.9387E-4,0
SPOT 7,2014-034A,2024-02-13T03:00:24.197184,14.59102071,.0001336,98.1742,112.9695,78.5683,281.5666,0,U,40053,999,51237,.22234E-3,.1E-4,0
AISAT,2014-034B,2024-02-13T03:45:16.379712,14.86715463,.0010167,98.3508,253.0740,161.9505,198.2072,0,U,40054,999,51922,.10128E-2,.8963E-4,0
CANX-4,2014-034C,2024-02-13T01:32:04.738272,14.77473852,.0012674,98.3945,233.6414,227.7105,132.3030,0,U,40055,999,51810,.37515E-3,.2621E-4,0
CANX-5,2014-034D,2024-02-12T12:40:23.530368,14.77479987,.0012615,98.3945,233.0809,229.9560,130.0543,0,U,40056,999,50880,.44787E-3,.314E-4,0
VELOX-I,2014-034E,2024-02-13T03:13:39.250848,14.84395225,.0008996,98.3552,253.3163,180.2043,179.9168,0,U,40057,999,51914,.8374E-3,.6989E-4,0
PSLV R/B,2014-034F,2024-02-12T22:41:05.334432,14.80918362,.0020722,98.3252,219.8280,208.8758,151.1308,0,U,40058,999,51932,.31765E-3,.2407E-4,0
OCO 2,2014-035A,2024-02-12T21:01:55.121088,14.57079196,.0002044,98.2277,346.5222,90.6225,269.5208,0,U,40059,999,51149,.28024E-3,.1216E-4,0
